188P/LINEAR-Mueller,e,10.5115,358.9815,26.8157,4.382824,0.1074170,0.41485587,315.4006,12/30.0/2015,2000,g 11.5,4.0
# From NK 2724
189P/NEAT,e,20.1024,281.9144,16.1176,2.945706,0.1949485,0.58903888,246.0250,12/30.0/2015,2000,g 19.0,4.0
# From MPC 75724
190P/Mueller,e,2.1728,335.5554,50.4230,4.243061,0.1127678,0.52082401,348.7374,12/30.0/2015,2000,g 13.0,4.0
# From MPC 92277
191P/McNaught,e,8.7343,106.2684,275.0414,3.541857,0.1478624,0.42133416,88.9473,12/30.0/2015,2000,g 13.0,4.0
# From MPC 75724
192P/Shoemaker-Levy,e,24.5232,51.6478,312.9928,6.476455,0.0597996,0.77159449,175.8988,12/30.0/2015,2000,g 15.0,4.0
# From MPC 91618
193P/LINEAR-NEAT,e,10.6871,335.1941,8.4238,3.574993,0.1458114,0.39407485,58.3825,12/30.0/2015,2000,g 14.0,4.0
# From MPC 75724
194P/LINEAR,e,11.1380,351.9941,130.7109,3.998932,0.1232503,0.57545352,352.1789,12/30.0/2015,2000,g 16.0,4.0
# From MPC 75724
195P/Hill,e,36.3589,243.1447,249.6682,6.480845,0.0597388,0.31596849,151.2464,12/30.0/2015,2000,g  8.5,4.0
# From MPC 92985
196P/Tichy,e,19.3778,24.2563,11.9672,3.774469,0.1344065,0.43432752,26.6306,12/30.0/2015,2000,g 13.5,4.0
# From MPC 94676
197P/LINEAR,e,25.5504,66.3890,188.6976,2.865156,0.2032272,0.62979660,205.3308,12/30.0/2015,2000,g 16.5,2.0
# From MPC 65937
198P/ODAS,e,1.3394,358.3472,69.3292,3.599029,0.1443531,0.44343220,204.1131,12/30.0/2015,2000,g 12.5,4.0
# From MPC 75725
199P/Shoemaker,e,24.8956,92.3629,191.4559,5.912648,0.0685537,0.50369661,169.2592,12/30.0/2015,2000,g 10.0,4.0
# From MPC 75725
200P/Larsen,e,12.1070,234.8027,133.9930,4.929741,0.0900467,0.33075822,242.2797,12/30.0/2015,2000,g  9.0,4.0
# From MPC 93588
201P/LONEOS,e,7.0378,35.2007,25.0612,3.459329,0.1531850,0.61322852,53.5102,12/30.0/2015,2000,g 14.0,4.0
# From MPC 75725
202P/Scotti,e,2.1882,194.5245,255.7292,3.770623,0.1346122,0.33211665,337.9291,12/30.0/2015,2000,g 13.5,4.0
# From MPC 75725
203P/Korlevic,e,2.9765,290.3908,155.1386,4.661622,0.0979261,0.31542266,210.4214,12/30.0/2015,2000,g 14.5,2.0
# From MPC 96868
204P/LINEAR-NEAT,e,6.5887,109.0694,355.0869,3.655550,0.1410181,0.47214611,2.5932,12/30.0/2015,2000,g 14.0,4.0
# From MPC 94284
205P/Giacobini,e,15.2851,179.6188,154.2242,3.547950,0.1474816,0.56689988,33.9285,12/30.0/2015,2000,g 13.0,4.0
# From MPC 75725
206P/Barnard-Boattini,e,32.9836,203.9850,181.6538,3.241398,0.1688906,0.64666764,82.5823,12/30.0/2015,2000,g 19.0,4.0
# From MPC 75725
207P/NEAT,e,10.1604,200.5474,271.2771,3.877380,0.1290912,0.75822065,336.2113,12/30.0/2015,2000,g 16.0,4.0
# From MPC 75725
208P/McMillan,e,4.4075,36.4173,310.5300,4.052115,0.1208318,0.37206526,337.6681,12/30.0/2015,2000,g 12.5,4.0
# From MPC 90771
209P/LINEAR,e,21.2419,62.7955,152.4256,2.963159,0.1932287,0.67303040,116.4317,12/30.0/2015,2000,g 17.0,2.0
# From MPC 89013
210P/Christensen,e,10.2390,93.8245,345.8287,3.170382,0.1745970,0.83231725,87.2657,12/30.0/2015,2000,g 13.5,4.0
# From MPC 96868
211P/Hill,e,18.8877,117.2690,4.4335,3.558313,0.1468378,0.33942794,355.8400,12/30.0/2015,2000,g 12.5,4.0
# From MPC 75726
212P/NEAT,e,22.4272,98.8901,15.0653,3.917528,0.1271118,0.58018449,327.5370,12/30.0/2015,2000,g 17.0,2.0
# From MPC 88331
213P/Van Ness,e,10.3952,311.4932,5.0430,3.356054,0.1603101,0.40714216,258.4116,12/30.0/2015,2000,g 10.5,4.0
# From MPC 92986
214P/LINEAR,e,15.2052,348.2665,190.2412,3.612321,0.1435571,0.48744562,6.7909,12/30.0/2015,2000,g 13.0,4.0
# From MPC 81861
215P/NEAT,e,10.0514,61.4966,255.1504,4.344448,0.1088434,0.19592212,210.6634,12/30.0/2015,2000,g 11.0,4.0
# From MPC 84322
216P/LINEAR,e,9.0481,359.8738,151.6031,3.875212,0.1291995,0.44525945,340.2080,12/30.0/2015,2000,g 13.0,4.0
# From MPC 75726
217P/LINEAR,e,12.8560,125.4603,246.9589,3.954415,0.1253374,0.68756277,289.2282,12/30.0/2015,2000,g 12.0,4.0
# From MPC 95214
218P/LINEAR,e,2.7251,176.0200,59.6727,3.095853,0.1809396,0.62161360,45.3830,12/30.0/2015,2000,g 16.0,4.0
# From MPC 75727
219P/LINEAR,e,11.5294,231.0301,107.4290,3.651276,0.1412658,0.35223701,300.8476,12/30.0/2015,2000,g 11.0,4.0
# From MPC 96868
220P/McNaught,e,8.1252,150.1135,180.6597,3.116289,0.1791626,0.50135622,35.7010,12/30.0/2015,2000,g 15.0,4.0
# From MPC 93589
221P/LINEAR,e,11.4233,229.7534,39.9501,3.460136,0.1531314,0.49185033,26.2431,12/30.0/2015,2000,g 14.5,4.0
# From MPC 92277
222P/LINEAR,e,5.1664,6.8382,346.0080,2.874699,0.2022160,0.72549293,109.7819,12/30.0/2015,2000,g 20.0,4.0
# From MPC 75727
223P/Skiff,e,27.0175,346.8042,37.9018,4.153684,0.1164270,0.41480110,229.0222,12/30.0/2015,2000,g 12.0,4.0
# From MPC 75727
224P/LINEAR-NEAT,e,13.4256,40.4758,16.3226,3.413208,0.1563003,0.41600453,337.0842,12/30.0/2015,2000,g 15.5,4.0
# From MPC 75727
225P/LINEAR,e,21.3349,14.1837,3.9336,3.654134,0.1411001,0.63756738,327.4103,12/30.0/2015,2000,g 18.0,4.0
# From MPC 84322
226P/Pigott-LINEAR-Kowalski,e,44.0031,54.0110,341.1332,3.770283,0.1346304,0.52888449,326.3230,12/30.0/2015,2000,g 12.5,4.0
# From MPC 75727
227P/Catalina-LINEAR,e,6.5260,49.8040,90.2149,3.585978,0.1451419,0.50130248,281.6142,12/30.0/2015,2000,g 16.5,2.0
# From MPC 75728
228P/LINEAR,e,7.9107,31.0166,115.1978,4.176094,0.1154911,0.17821729,183.2065,12/30.0/2015,2000,g 14.5,2.0
# From MPC 75728
229P/Gibbs,e,26.0691,157.9073,224.2129,3.934597,0.1262856,0.37603949,295.8539,12/30.0/2015,2000,g 13.0,4.0
# From MPC 95735
230P/LINEAR,e,14.6531,112.3946,308.9219,3.399228,0.1572656,0.56305272,6.5931,12/30.0/2015,2000,g 13.0,4.0
# From MPC 75728
231P/LINEAR-NEAT,e,12.3307,133.0646,42.4304,4.022955,0.1221480,0.24794932,205.9999,12/30.0/2015,2000,g 14.5,2.0
# From MPC 75728
232P/Hill,e,14.6290,56.0586,53.5980,4.486403,0.1037186,0.33563924,236.2448,12/30.0/2015,2000,g 11.5,4.0
# From MPC 92986
233P/La Sagra,e,11.2779,74.9521,27.2519,3.032822,0.1866094,0.41098850,35.0024,12/30.0/2015,2000,g 15.0,4.0
# From MPC 82322
234P/LINEAR,e,11.5263,179.7231,358.1232,3.809207,0.1325721,0.25228333,291.0739,12/30.0/2015,2000,g 12.0,4.0
# From MPC 75728
235P/LINEAR,e,8.9028,204.4536,333.6186,3.992826,0.1235332,0.31515551,260.1756,12/30.0/2015,2000,g 12.0,4.0
# From MPC 75728
236P/LINEAR,e,16.3316,245.6743,119.2760,3.731744,0.1367213,0.50744828,265.4777,12/30.0/2015,2000,g 14.0,4.0
# From MPC 92277
237P/LINEAR,e,14.0192,245.4529,24.9724,3.511888,0.1497590,0.43472165,317.0872,12/30.0/2015,2000,g 14.5,2.0
# From MPC 89731
238P/Read,e,1.2647,51.6532,324.9879,3.164847,0.1750552,0.25245035,307.8750,12/30.0/2015,2000,g 14.5,4.0
# From MPC 75729
239P/LINEAR,e,11.3083,255.9754,220.3585,4.470059,0.1042880,0.63168841,244.5898,12/30.0/2015,2000,g 17.5,2.0
# From MPC 94676
240P/NEAT,e,23.5107,74.9484,352.1713,3.870177,0.1294517,0.44921961,247.6045,12/30.0/2015,2000,g 12.0,4.0
# From MPC 75729
241P/LINEAR,e,20.8714,305.7750,110.5558,4.955797,0.0893375,0.60921821,178.0564,12/30.0/2015,2000,g 13.5,4.0
# From MPC 81861
242P/Spahr,e,32.5187,180.7019,247.3223,5.492788,0.0765623,0.27590574,104.8680,12/30.0/2015,2000,g  8.0,4.0
# From MPC 82322
243P/NEAT,e,7.6405,87.6671,283.5772,3.828962,0.1315475,0.35855337,232.3184,12/30.0/2015,2000,g 12.5,4.0
# From MPC 88331
244P/Scotti,e,2.2582,354.1104,92.8895,4.894772,0.0910134,0.19779825,131.0116,12/30.0/2015,2000,g  9.0,4.0
# From MPC 75729
245P/WISE,e,21.2656,316.7823,316.8882,4.032674,0.1217067,0.45908409,266.0704,12/30.0/2015,2000,g 14.0,4.0
# From MPC 93589
246P/NEAT,e,15.9748,78.7532,176.0019,4.023871,0.1221063,0.28542260,130.1353,12/30.0/2015,2000,g 10.5,4.0
# From MPC 75729
247P/LINEAR,e,13.6641,54.0492,47.4762,3.968638,0.1246642,0.62558961,226.8942,12/30.0/2015,2000,g 16.5,2.0
# From MPC 75730
248P/Gibbs,e,6.3563,207.7896,210.1615,5.987242,0.0672766,0.63867170,120.2596,12/30.0/2015,2000,g 14.0,4.0
# From MPC 92986
249P/LINEAR,e,8.3936,239.1618,65.6261,2.763748,0.2145144,0.81944433,7.1427,12/30.0/2015,2000,g 15.5,4.0
# From MPC 75730
250P/Larson,e,13.2887,73.7018,45.0471,3.733123,0.1366456,0.40733387,255.4724,12/30.0/2015,2000,g 14.5,4.0
# From MPC 75730
251P/LINEAR,e,23.4171,219.4331,31.2183,3.504484,0.1502339,0.50602145,275.1685,12/30.0/2015,2000,g 16.5,2.0
# From MPC 95735
252P/LINEAR,e,10.4047,190.9819,343.2902,3.052311,0.1848251,0.67365575,345.9009,12/30.0/2015,2000,g 17.5,4.0
# From MPC 81473
253P/PANSTARRS,e,4.9406,146.8918,230.7508,3.467970,0.1526128,0.41242345,228.7295,12/30.0/2015,2000,g 14.5,4.0
# From MPC 81473
254P/McNaught,e,32.5655,129.8020,219.1424,4.628646,0.0989744,0.31945448,187.4804,12/30.0/2015,2000,g 11.0,4.0
# From NK 2214
255P/Levy,e,18.2581,279.7239,179.7041,3.038564,0.1860808,0.66797641,268.8191,12/30.0/2015,2000,g 20.0,4.0
# From MPC 84027
256P/LINEAR,e,27.6290,81.4158,124.1494,4.631812,0.0988730,0.41954574,100.5747,12/30.0/2015,2000,g 14.0,2.0
# From MPC 88332
257P/Catalina,e,20.2375,207.8077,117.9532,3.754728,0.1354679,0.43166741,127.2345,12/30.0/2015,2000,g 11.5,4.0
# From MPC 79655
258P/PANSTARRS,e,6.7459,126.2990,25.9808,4.404530,0.1066239,0.21044956,186.0419,12/30.0/2015,2000,g 13.0,4.0
# From MPC 79655
259P/Garradd,e,15.8685,51.5946,257.2219,2.734060,0.2180178,0.33830524,233.0502,12/30.0/2015,2000,g 15.5,4.0
# From MPC 82322
260P/McNaught,e,15.8045,351.8654,15.3976,3.668055,0.1402976,0.59660020,168.7394,12/30.0/2015,2000,g 13.5,4.0
# From MPC 81861
261P/Larson,e,6.1728,297.0251,59.5305,3.549459,0.1473876,0.40937286,172.4523,12/30.0/2015,2000,g 14.0,4.0
# From MPC 82322
262P/McNaught-Russell,e,29.0929,217.9658,171.1254,6.901883,0.0543567,0.81468249,60.9555,12/30.0/2015,2000,g 13.5,4.0
# From MPC 82323
263P/Gibbs,e,11.5323,105.8553,34.5562,3.061949,0.1839531,0.58762074,242.3219,12/30.0/2015,2000,g 18.0,4.0
# From MPC 81473
264P/Larsen,e,25.1402,220.9018,346.4377,3.898733,0.1280321,0.37335262,191.8183,12/30.0/2015,2000,g 13.0,4.0
# From MPC 79870
265P/LINEAR,e,14.7089,344.7114,32.6229,4.232245,0.1132004,0.64747331,146.9550,12/30.0/2015,2000,g 14.5,4.0
# From MPC 90771
266P/Christensen,e,3.4281,5.0098,98.0130,3.530438,0.1485803,0.34015252,126.4095,12/30.0/2015,2000,g 12.5,4.0
# From MPC 81862
267P/LONEOS,e,5.4512,238.3654,103.3970,3.252074,0.1680596,0.61009987,203.3744,12/30.0/2015,2000,g 19.5,4.0
# From MPC 92277
